#aV2012 11 20  0  0  0.00000000     288 DD+AD WGS84 FIT  NGA
## 1715 172800.00000000   300.00000000 56251 0.0000000000000
+   31     1  2  3  4  5  6  7  8  9 10 11 12 13 14 15 16 17
+         18 19 20 21 22 23 24 25 26 28 29 30 31 32  0  0  0
+          0  0  0  0  0  0  0  0  0  0  0  0  0  0  0  0  0
+          0  0  0  0  0  0  0  0  0  0  0  0  0  0  0  0  0
+          0  0  0  0  0  0  0  0  0  0  0  0  0  0  0  0  0
++         2  2  2  2  2  2  2  2  2  2  2  2  2  2  2  2  2
++         2  2  2  2  2  2  2  2  2  2  2  2  2  2  2  0  0
++         0  0  0  0  0  0  0  0  0  0  0  0  0  0  0  0  0
++         0  0  0  0  0  0  0  0  0  0  0  0  0  0  0  0  0
++         0  0  0  0  0  0  0  0  0  0  0  0  0  0  0  0  0
%c cc cc ccc ccc cccc cccc cccc cccc ccccc ccccc ccccc ccccc
%c cc cc ccc ccc cccc cccc cccc cccc ccccc ccccc ccccc ccccc
%f  0.0000000  0.000000000  0.00000000000  0.000000000000000
%f  0.0000000  0.000000000  0.00000000000  0.000000000000000
%i    0    0    0    0      0      0      0      0         0
%i    0    0    0    0      0      0      0      0         0
/*      NGA, ST. LOUIS,MO.                                  
/*   EPHEMERIS COMPUTED FROM  1 DAYS OF DATA
/*   EPOCHA SMOOTHER  
/* CCCCCCCCCCCCCCCCCCCCCCCCCCCCCCCCCCCCCCCCCCCCCCCCCCCCCCCCC
*  2012 11 20 22 15  0.00000000                                                 
P  1 -12711.117644  21830.274329  -8130.601385    283.460141                    
V  1  -9023.286398   5668.974361  29467.631959      0.018846                    
P  2  21029.519596 -11604.618335 -10602.522028    409.488646                    
V  2  -6766.598253  12650.334568 -27381.105128      0.010873                    
P  3 -13934.190642   6985.029238  21005.588774    131.167746                    
V  3 -11833.595288 -25332.910183    796.677643      0.051025                    
P  4  17656.632971   2672.440421 -20021.226466     52.084046                    
V  4 -16165.667211  18872.611918 -11604.085001      0.111644                    
P  5  22771.220929  -4270.988104  13090.652460   -367.876461                    
V  5  15641.981422   6155.984520 -25005.562285     -0.024793                    
P  6 -16347.892234    191.548475  21075.819848    450.370166                    
V  6  -8648.582214 -25125.360142  -6184.162520     -0.121977                    
P  7    415.146857  18224.494812  19252.063962    147.878689                    
V  7 -17975.874701  16574.137988 -15610.597148      0.044806                    
P  8  11274.351048   9280.417591  22314.415510      2.956607                    
V  8 -21283.512880  18134.057297   2654.048141      0.001637                    
P  9  16035.098710 -20943.651570  -3802.212839    201.120732                    
V  9   4251.392010  -1694.734508  31766.602241      0.026622                    
P 10  24922.736265   9181.812871  -3743.142351    -59.189517                    
V 10  -4954.035100   1714.941512 -30663.029812     -0.014174                    
P 11 -12209.649593  23397.486279    306.139089   -325.257228                    
V 11  -4359.922412  -3208.700221  30236.452124     -0.039561                    
P 12   7180.735799 -13210.716521 -21894.627412    102.689742                    
V 12  26685.417295   7492.473953   4420.029155      0.020539                    
P 13   4459.657503  26104.651920  -1037.264277    165.817155                    
V 13  -2361.754970   -711.171798 -32294.695421     -0.027028                    
P 14 -13828.475024 -17625.232535 -14181.797294    217.064735                    
V 14  -2350.577317 -18190.106184  24418.612383      0.006381                    
P 15   7423.618500 -18334.296912  17602.304092   -100.149092                    
V 15   8986.183085  20748.967143  18048.840845     -0.009532                    
P 16 -22889.379188   2779.536622  13457.783383   -249.827297                    
V 16 -15879.050671  -6060.791248 -25438.453646     -0.005180                    
P 17  14734.325585  16653.626987 -14521.323252     76.762973                    
V 17   2825.454636  18546.692580  23585.640779     -0.034749                    
P 18 -13836.505624 -16085.772837  16566.868773    225.585544                    
V 18  20222.127605   2710.107245  19629.582371      0.018422                    
P 19 -10191.796775  15535.462749  18746.799332   -323.964771                    
V 19  -6434.610296 -23289.049140  16131.418497     -0.034059                    
P 20  -5097.802642  15239.683416 -21309.752488     73.970250                    
V 20 -26290.387804  -5230.063208   2644.191183      0.011495                    
P 21  -5261.397901 -16578.778028  20461.035496   -263.465543                    
V 21  18255.353821 -17259.438219 -10096.169576     -0.023640                    
P 22 -23736.302038 -10522.853448   6094.613646    151.679556                    
V 22   8158.046482  -1708.108200  29600.723655      0.007148                    
P 23  -2551.256238  23063.720231 -12510.480556    141.969371                    
V 23  -6995.960235 -14776.280126 -26067.506088     -0.038321                    
P 24  15318.181705 -21205.890027  -4571.857428      3.646902                    
V 24   6016.183530  -2343.507171  31016.424711     -0.006480                    
P 25  -6694.478334 -15788.973604 -20336.814585     52.165064                    
V 25  25247.441914   4837.519254 -12021.113855      0.019663                    
P 26  13470.843070  -5846.733260  21482.007124   -202.930455                    
V 26   6216.706868  28085.614874   3981.742100      0.135803                    
P 28  21294.434807  13099.277560   9841.836325    206.563936                    
V 28 -11580.241131  -1674.979855  28772.775026      0.035950                    
P 29  -4426.144249 -26042.056822  -2919.973985    379.180099                    
V 29   3485.962789   3007.867121 -31525.110717      0.040595                    
P 30 -26363.824058  -2174.768713   1877.735335   -313.119833                    
V 30  -2420.616101  -3155.483639 -31683.862438      0.151836                    
P 31 -18884.907056   1492.142446 -18533.203536    287.899675                    
V 31  15911.183392 -17715.679762 -17211.300975      0.021385                    
P 32 -15360.697689   9358.818752 -19198.377657   -509.745191                    
V 32 -23150.321140  -9454.678311  14290.506515     -0.034832                    
EOF
